[{"regionCode":"AC","regionName":"é˜¿æ£®æ¾å²›","regionFlag":"ğŸ‡¦ğŸ‡¨","regionSyllables":["a","sen","song","dao"],"callingCode":"+247"},{"regionCode":"AD","regionName":"å®‰é“å°”","regionFlag":"ğŸ‡¦ğŸ‡©","regionSyllables":["an","dao","er"],"callingCode":"+376"},{"regionCode":"AE","regionName":"é˜¿æ‹‰ä¼¯è”åˆé…‹é•¿å›½","regionFlag":"ğŸ‡¦ğŸ‡ª","regionSyllables":["a","la","bo","lian","he","qiu","zhang","guo"],"callingCode":"+971"},{"regionCode":"AF","regionName":"é˜¿å¯Œæ±—","regionFlag":"ğŸ‡¦ğŸ‡«","regionSyllables":["a","fu","han"],"callingCode":"+93"},{"regionCode":"AG","regionName":"å®‰æç“œå’Œå·´å¸ƒè¾¾","regionFlag":"ğŸ‡¦ğŸ‡¬","regionSyllables":["an","ti","gua","he","ba","bu","da"],"callingCode":"+1-268"},{"regionCode":"AI","regionName":"å®‰åœ­æ‹‰","regionFlag":"ğŸ‡¦ğŸ‡®","regionSyllables":["an","gui","la"],"callingCode":"+1-264"},{"regionCode":"AL","regionName":"é˜¿å°”å·´å°¼äºš","regionFlag":"ğŸ‡¦ğŸ‡±","regionSyllables":["a","er","ba","ni","ya"],"callingCode":"+355"},{"regionCode":"AM","regionName":"äºšç¾å°¼äºš","regionFlag":"ğŸ‡¦ğŸ‡²","regionSyllables":["ya","mei","ni","ya"],"callingCode":"+374"},{"regionCode":"AO","regionName":"å®‰å“¥æ‹‰","regionFlag":"ğŸ‡¦ğŸ‡´","regionSyllables":["an","ge","la"],"callingCode":"+244"},{"regionCode":"AQ","regionName":"å—ææ´²","regionFlag":"ğŸ‡¦ğŸ‡¶","regionSyllables":["nan","ji","zhou"],"callingCode":"+672"},{"regionCode":"AR","regionName":"é˜¿æ ¹å»·","regionFlag":"ğŸ‡¦ğŸ‡·","regionSyllables":["a","gen","ting"],"callingCode":"+54"},{"regionCode":"AS","regionName":"ç¾å±è¨æ‘©äºš","regionFlag":"ğŸ‡¦ğŸ‡¸","regionSyllables":["mei","shu","sa","mo","ya"],"callingCode":"+1-684"},{"regionCode":"AT","regionName":"å¥¥åœ°åˆ©","regionFlag":"ğŸ‡¦ğŸ‡¹","regionSyllables":["ao","de","li"],"callingCode":"+43"},{"regionCode":"AU","regionName":"æ¾³å¤§åˆ©äºš","regionFlag":"ğŸ‡¦ğŸ‡º","regionSyllables":["ao","da","li","ya"],"callingCode":"+61"},{"regionCode":"AW","regionName":"é˜¿é²å·´","regionFlag":"ğŸ‡¦ğŸ‡¼","regionSyllables":["a","lu","ba"],"callingCode":"+297"},{"regionCode":"AX","regionName":"å¥¥å…°ç¾¤å²›","regionFlag":"ğŸ‡¦ğŸ‡½","regionSyllables":["ao","lan","qun","dao"],"callingCode":"+358"},{"regionCode":"AZ","regionName":"é˜¿å¡æ‹œç–†","regionFlag":"ğŸ‡¦ğŸ‡¿","regionSyllables":["a","sai","bai","jiang"],"callingCode":"+994"},{"regionCode":"BA","regionName":"æ³¢æ–¯å°¼äºšå’Œé»‘å¡å“¥ç»´é‚£","regionFlag":"ğŸ‡§ğŸ‡¦","regionSyllables":["bo","si","ni","ya","he","hei","sai","ge","wei","na"],"callingCode":"+387"},{"regionCode":"BB","regionName":"å·´å·´å¤šæ–¯","regionFlag":"ğŸ‡§ğŸ‡§","regionSyllables":["ba","ba","duo","si"],"callingCode":"+1-246"},{"regionCode":"BD","regionName":"å­ŸåŠ æ‹‰å›½","regionFlag":"ğŸ‡§ğŸ‡©","regionSyllables":["meng","jia","la","guo"],"callingCode":"+880"},{"regionCode":"BE","regionName":"æ¯”åˆ©æ—¶","regionFlag":"ğŸ‡§ğŸ‡ª","regionSyllables":["bi","li","shi"],"callingCode":"+32"},{"regionCode":"BF","regionName":"å¸ƒåŸºçº³æ³•ç´¢","regionFlag":"ğŸ‡§ğŸ‡«","regionSyllables":["bu","ji","na","fa","suo"],"callingCode":"+226"},{"regionCode":"BG","regionName":"ä¿åŠ åˆ©äºš","regionFlag":"ğŸ‡§ğŸ‡¬","regionSyllables":["bao","jia","li","ya"],"callingCode":"+359"},{"regionCode":"BH","regionName":"å·´æ—","regionFlag":"ğŸ‡§ğŸ‡­","regionSyllables":["ba","lin"],"callingCode":"+973"},{"regionCode":"BI","regionName":"å¸ƒéš†è¿ª","regionFlag":"ğŸ‡§ğŸ‡®","regionSyllables":["bu","long","di"],"callingCode":"+257"},{"regionCode":"BJ","regionName":"è´å®","regionFlag":"ğŸ‡§ğŸ‡¯","regionSyllables":["bei","ning"],"callingCode":"+229"},{"regionCode":"BL","regionName":"åœ£å·´æ³°å‹’ç±³","regionFlag":"ğŸ‡§ğŸ‡±","regionSyllables":["sheng","ba","tai","lei","mi"],"callingCode":"+590"},{"regionCode":"BM","regionName":"ç™¾æ…•å¤§","regionFlag":"ğŸ‡§ğŸ‡²","regionSyllables":["bai","mu","da"],"callingCode":"+1-441"},{"regionCode":"BN","regionName":"æ–‡è±","regionFlag":"ğŸ‡§ğŸ‡³","regionSyllables":["wen","lai"],"callingCode":"+673"},{"regionCode":"BO","regionName":"ç»åˆ©ç»´äºš","regionFlag":"ğŸ‡§ğŸ‡´","regionSyllables":["bo","li","wei","ya"],"callingCode":"+591"},{"regionCode":"BQ","regionName":"è·å±åŠ å‹’æ¯”åŒº","regionFlag":"ğŸ‡§ğŸ‡¶","regionSyllables":["he","shu","jia","lei","bi","qu"],"callingCode":"+599"},{"regionCode":"BR","regionName":"å·´è¥¿","regionFlag":"ğŸ‡§ğŸ‡·","regionSyllables":["ba","xi"],"callingCode":"+55"},{"regionCode":"BS","regionName":"å·´å“ˆé©¬","regionFlag":"ğŸ‡§ğŸ‡¸","regionSyllables":["ba","ha","ma"],"callingCode":"+1-242"},{"regionCode":"BT","regionName":"ä¸ä¸¹","regionFlag":"ğŸ‡§ğŸ‡¹","regionSyllables":["bu","dan"],"callingCode":"+975"},{"regionCode":"BW","regionName":"åšèŒ¨ç“¦çº³","regionFlag":"ğŸ‡§ğŸ‡¼","regionSyllables":["bo","ci","wa","na"],"callingCode":"+267"},{"regionCode":"BY","regionName":"ç™½ä¿„ç½—æ–¯","regionFlag":"ğŸ‡§ğŸ‡¾","regionSyllables":["bai","e","luo","si"],"callingCode":"+375"},{"regionCode":"BZ","regionName":"ä¼¯åˆ©å…¹","regionFlag":"ğŸ‡§ğŸ‡¿","regionSyllables":["bo","li","zi"],"callingCode":"+501"},{"regionCode":"CA","regionName":"åŠ æ‹¿å¤§","regionFlag":"ğŸ‡¨ğŸ‡¦","regionSyllables":["jia","na","da"],"callingCode":"+1"},{"regionCode":"CC","regionName":"ç§‘ç§‘æ–¯ï¼ˆåŸºæ—ï¼‰ç¾¤å²›","regionFlag":"ğŸ‡¨ğŸ‡¨","regionSyllables":["ke","ke","si","ji","lin","qun","dao"],"callingCode":"+61"},{"regionCode":"CD","regionName":"åˆšæœï¼ˆé‡‘ï¼‰","regionFlag":"ğŸ‡¨ğŸ‡©","regionSyllables":["gang","guo","jin"],"callingCode":"+243"},{"regionCode":"CF","regionName":"ä¸­éå…±å’Œå›½","regionFlag":"ğŸ‡¨ğŸ‡«","regionSyllables":["zhong","fei","gong","he","guo"],"callingCode":"+236"},{"regionCode":"CG","regionName":"åˆšæœï¼ˆå¸ƒï¼‰","regionFlag":"ğŸ‡¨ğŸ‡¬","regionSyllables":["gang","guo","bu"],"callingCode":"+242"},{"regionCode":"CH","regionName":"ç‘å£«","regionFlag":"ğŸ‡¨ğŸ‡­","regionSyllables":["rui","shi"],"callingCode":"+41"},{"regionCode":"CI","regionName":"ç§‘ç‰¹è¿ªç“¦","regionFlag":"ğŸ‡¨ğŸ‡®","regionSyllables":["ke","te","di","wa"],"callingCode":"+225"},{"regionCode":"CK","regionName":"åº“å…‹ç¾¤å²›","regionFlag":"ğŸ‡¨ğŸ‡°","regionSyllables":["ku","ke","qun","dao"],"callingCode":"+682"},{"regionCode":"CL","regionName":"æ™ºåˆ©","regionFlag":"ğŸ‡¨ğŸ‡±","regionSyllables":["zhi","li"],"callingCode":"+56"},{"regionCode":"CM","regionName":"å–€éº¦éš†","regionFlag":"ğŸ‡¨ğŸ‡²","regionSyllables":["ka","mai","long"],"callingCode":"+237"},{"regionCode":"CN","regionName":"ä¸­å›½","regionFlag":"ğŸ‡¨ğŸ‡³","regionSyllables":["zhong","guo"],"callingCode":"+86"},{"regionCode":"CO","regionName":"å“¥ä¼¦æ¯”äºš","regionFlag":"ğŸ‡¨ğŸ‡´","regionSyllables":["ge","lun","bi","ya"],"callingCode":"+57"},{"regionCode":"CR","regionName":"å“¥æ–¯è¾¾é»åŠ ","regionFlag":"ğŸ‡¨ğŸ‡·","regionSyllables":["ge","si","da","li","jia"],"callingCode":"+506"},{"regionCode":"CU","regionName":"å¤å·´","regionFlag":"ğŸ‡¨ğŸ‡º","regionSyllables":["gu","ba"],"callingCode":"+53"},{"regionCode":"CV","regionName":"ä½›å¾—è§’","regionFlag":"ğŸ‡¨ğŸ‡»","regionSyllables":["fu","de","jiao"],"callingCode":"+238"},{"regionCode":"CW","regionName":"åº“æ‹‰ç´¢","regionFlag":"ğŸ‡¨ğŸ‡¼","regionSyllables":["ku","la","suo"],"callingCode":"+599 9"},{"regionCode":"CX","regionName":"åœ£è¯å²›","regionFlag":"ğŸ‡¨ğŸ‡½","regionSyllables":["sheng","dan","dao"],"callingCode":"+61"},{"regionCode":"CY","regionName":"å¡æµ¦è·¯æ–¯","regionFlag":"ğŸ‡¨ğŸ‡¾","regionSyllables":["sai","pu","lu","si"],"callingCode":"+357"},{"regionCode":"CZ","regionName":"æ·å…‹","regionFlag":"ğŸ‡¨ğŸ‡¿","regionSyllables":["jie","ke"],"callingCode":"+420"},{"regionCode":"DE","regionName":"å¾·å›½","regionFlag":"ğŸ‡©ğŸ‡ª","regionSyllables":["de","guo"],"callingCode":"+49"},{"regionCode":"DJ","regionName":"å‰å¸ƒæ","regionFlag":"ğŸ‡©ğŸ‡¯","regionSyllables":["ji","bu","ti"],"callingCode":"+253"},{"regionCode":"DK","regionName":"ä¸¹éº¦","regionFlag":"ğŸ‡©ğŸ‡°","regionSyllables":["dan","mai"],"callingCode":"+45"},{"regionCode":"DM","regionName":"å¤šç±³å°¼å…‹","regionFlag":"ğŸ‡©ğŸ‡²","regionSyllables":["duo","mi","ni","ke"],"callingCode":"+1-767"},{"regionCode":"DO","regionName":"å¤šç±³å°¼åŠ å…±å’Œå›½","regionFlag":"ğŸ‡©ğŸ‡´","regionSyllables":["duo","mi","ni","jia","gong","he","guo"],"callingCode":"+1-849"},{"regionCode":"DZ","regionName":"é˜¿å°”åŠåˆ©äºš","regionFlag":"ğŸ‡©ğŸ‡¿","regionSyllables":["a","er","ji","li","ya"],"callingCode":"+213"},{"regionCode":"EC","regionName":"å„ç“œå¤šå°”","regionFlag":"ğŸ‡ªğŸ‡¨","regionSyllables":["e","gua","duo","er"],"callingCode":"+593"},{"regionCode":"EE","regionName":"çˆ±æ²™å°¼äºš","regionFlag":"ğŸ‡ªğŸ‡ª","regionSyllables":["ai","sha","ni","ya"],"callingCode":"+372"},{"regionCode":"EG","regionName":"åŸƒåŠ","regionFlag":"ğŸ‡ªğŸ‡¬","regionSyllables":["ai","ji"],"callingCode":"+20"},{"regionCode":"EH","regionName":"è¥¿æ’’å“ˆæ‹‰","regionFlag":"ğŸ‡ªğŸ‡­","regionSyllables":["xi","sa","ha","la"],"callingCode":"+212"},{"regionCode":"ER","regionName":"å„ç«‹ç‰¹é‡Œäºš","regionFlag":"ğŸ‡ªğŸ‡·","regionSyllables":["e","li","te","li","ya"],"callingCode":"+291"},{"regionCode":"ES","regionName":"è¥¿ç­ç‰™","regionFlag":"ğŸ‡ªğŸ‡¸","regionSyllables":["xi","ban","ya"],"callingCode":"+34"},{"regionCode":"ET","regionName":"åŸƒå¡ä¿„æ¯”äºš","regionFlag":"ğŸ‡ªğŸ‡¹","regionSyllables":["ai","sai","e","bi","ya"],"callingCode":"+251"},{"regionCode":"FI","regionName":"èŠ¬å…°","regionFlag":"ğŸ‡«ğŸ‡®","regionSyllables":["fen","lan"],"callingCode":"+358"},{"regionCode":"FJ","regionName":"æ–æµ","regionFlag":"ğŸ‡«ğŸ‡¯","regionSyllables":["fei","ji"],"callingCode":"+679"},{"regionCode":"FK","regionName":"ç¦å…‹å…°ç¾¤å²›","regionFlag":"ğŸ‡«ğŸ‡°","regionSyllables":["fu","ke","lan","qun","dao"],"callingCode":"+500"},{"regionCode":"FM","regionName":"å¯†å…‹ç½—å°¼è¥¿äºš","regionFlag":"ğŸ‡«ğŸ‡²","regionSyllables":["mi","ke","luo","ni","xi","ya"],"callingCode":"+691"},{"regionCode":"FO","regionName":"æ³•ç½—ç¾¤å²›","regionFlag":"ğŸ‡«ğŸ‡´","regionSyllables":["fa","luo","qun","dao"],"callingCode":"+298"},{"regionCode":"FR","regionName":"æ³•å›½","regionFlag":"ğŸ‡«ğŸ‡·","regionSyllables":["fa","guo"],"callingCode":"+33"},{"regionCode":"GA","regionName":"åŠ è“¬","regionFlag":"ğŸ‡¬ğŸ‡¦","regionSyllables":["jia","peng"],"callingCode":"+241"},{"regionCode":"GB","regionName":"è‹±å›½","regionFlag":"ğŸ‡¬ğŸ‡§","regionSyllables":["ying","guo"],"callingCode":"+44"},{"regionCode":"GD","regionName":"æ ¼æ—çº³è¾¾","regionFlag":"ğŸ‡¬ğŸ‡©","regionSyllables":["ge","lin","na","da"],"callingCode":"+1-473"},{"regionCode":"GE","regionName":"æ ¼é²å‰äºš","regionFlag":"ğŸ‡¬ğŸ‡ª","regionSyllables":["ge","lu","ji","ya"],"callingCode":"+995"},{"regionCode":"GF","regionName":"æ³•å±åœ­äºšé‚£","regionFlag":"ğŸ‡¬ğŸ‡«","regionSyllables":["fa","shu","gui","ya","na"],"callingCode":"+594"},{"regionCode":"GG","regionName":"æ ¹è¥¿å²›","regionFlag":"ğŸ‡¬ğŸ‡¬","regionSyllables":["gen","xi","dao"],"callingCode":"+44"},{"regionCode":"GH","regionName":"åŠ çº³","regionFlag":"ğŸ‡¬ğŸ‡­","regionSyllables":["jia","na"],"callingCode":"+233"},{"regionCode":"GI","regionName":"ç›´å¸ƒç½—é™€","regionFlag":"ğŸ‡¬ğŸ‡®","regionSyllables":["zhi","bu","luo","tuo"],"callingCode":"+350"},{"regionCode":"GL","regionName":"æ ¼é™µå…°","regionFlag":"ğŸ‡¬ğŸ‡±","regionSyllables":["ge","ling","lan"],"callingCode":"+299"},{"regionCode":"GM","regionName":"å†ˆæ¯”äºš","regionFlag":"ğŸ‡¬ğŸ‡²","regionSyllables":["gang","bi","ya"],"callingCode":"+220"},{"regionCode":"GN","regionName":"å‡ å†…äºš","regionFlag":"ğŸ‡¬ğŸ‡³","regionSyllables":["ji","nei","ya"],"callingCode":"+224"},{"regionCode":"GP","regionName":"ç“œå¾·ç½—æ™®","regionFlag":"ğŸ‡¬ğŸ‡µ","regionSyllables":["gua","de","luo","pu"],"callingCode":"+590"},{"regionCode":"GQ","regionName":"èµ¤é“å‡ å†…äºš","regionFlag":"ğŸ‡¬ğŸ‡¶","regionSyllables":["chi","dao","ji","nei","ya"],"callingCode":"+240"},{"regionCode":"GR","regionName":"å¸Œè…Š","regionFlag":"ğŸ‡¬ğŸ‡·","regionSyllables":["xi","la"],"callingCode":"+30"},{"regionCode":"GS","regionName":"å—ä¹”æ²»äºšå’Œå—æ¡‘å¨å¥‡ç¾¤å²›","regionFlag":"ğŸ‡¬ğŸ‡¸","regionSyllables":["nan","qiao","zhi","ya","he","nan","sang","wei","qi","qun","dao"],"callingCode":"+500"},{"regionCode":"GT","regionName":"å±åœ°é©¬æ‹‰","regionFlag":"ğŸ‡¬ğŸ‡¹","regionSyllables":["wei","de","ma","la"],"callingCode":"+502"},{"regionCode":"GU","regionName":"å…³å²›","regionFlag":"ğŸ‡¬ğŸ‡º","regionSyllables":["guan","dao"],"callingCode":"+1-671"},{"regionCode":"GW","regionName":"å‡ å†…äºšæ¯”ç»","regionFlag":"ğŸ‡¬ğŸ‡¼","regionSyllables":["ji","nei","ya","bi","shao"],"callingCode":"+245"},{"regionCode":"GY","regionName":"åœ­äºšé‚£","regionFlag":"ğŸ‡¬ğŸ‡¾","regionSyllables":["gui","ya","na"],"callingCode":"+595"},{"regionCode":"HK","regionName":"ä¸­å›½é¦™æ¸¯","regionFlag":"ğŸ‡­ğŸ‡°","regionSyllables":["zhong","guo","xiang","gang"],"callingCode":"+852"},{"regionCode":"HM","regionName":"èµ«å¾·å²›å’Œéº¦å…‹å”çº³ç¾¤å²›","regionFlag":"ğŸ‡­ğŸ‡²","regionSyllables":["he","de","dao","he","mai","ke","tang","na","qun","dao"],"callingCode":"+672"},{"regionCode":"HN","regionName":"æ´ªéƒ½æ‹‰æ–¯","regionFlag":"ğŸ‡­ğŸ‡³","regionSyllables":["hong","dou","la","si"],"callingCode":"+504"},{"regionCode":"HR","regionName":"å…‹ç½—åœ°äºš","regionFlag":"ğŸ‡­ğŸ‡·","regionSyllables":["ke","luo","de","ya"],"callingCode":"+385"},{"regionCode":"HT","regionName":"æµ·åœ°","regionFlag":"ğŸ‡­ğŸ‡¹","regionSyllables":["hai","de"],"callingCode":"+509"},{"regionCode":"HU","regionName":"åŒˆç‰™åˆ©","regionFlag":"ğŸ‡­ğŸ‡º","regionSyllables":["xiong","ya","li"],"callingCode":"+36"},{"regionCode":"ID","regionName":"å°åº¦å°¼è¥¿äºš","regionFlag":"ğŸ‡®ğŸ‡©","regionSyllables":["yin","du","ni","xi","ya"],"callingCode":"+62"},{"regionCode":"IE","regionName":"çˆ±å°”å…°","regionFlag":"ğŸ‡®ğŸ‡ª","regionSyllables":["ai","er","lan"],"callingCode":"+353"},{"regionCode":"IL","regionName":"ä»¥è‰²åˆ—","regionFlag":"ğŸ‡®ğŸ‡±","regionSyllables":["yi","se","lie"],"callingCode":"+972"},{"regionCode":"IM","regionName":"é©¬æ©å²›","regionFlag":"ğŸ‡®ğŸ‡²","regionSyllables":["ma","en","dao"],"callingCode":"+44"},{"regionCode":"IN","regionName":"å°åº¦","regionFlag":"ğŸ‡®ğŸ‡³","regionSyllables":["yin","du"],"callingCode":"+91"},{"regionCode":"IO","regionName":"è‹±å±å°åº¦æ´‹é¢†åœ°","regionFlag":"ğŸ‡®ğŸ‡´","regionSyllables":["ying","shu","yin","du","yang","ling","de"],"callingCode":"+246"},{"regionCode":"IQ","regionName":"ä¼Šæ‹‰å…‹","regionFlag":"ğŸ‡®ğŸ‡¶","regionSyllables":["yi","la","ke"],"callingCode":"+964"},{"regionCode":"IR","regionName":"ä¼Šæœ—","regionFlag":"ğŸ‡®ğŸ‡·","regionSyllables":["yi","lang"],"callingCode":"+98"},{"regionCode":"IS","regionName":"å†°å²›","regionFlag":"ğŸ‡®ğŸ‡¸","regionSyllables":["bing","dao"],"callingCode":"+354"},{"regionCode":"IT","regionName":"æ„å¤§åˆ©","regionFlag":"ğŸ‡®ğŸ‡¹","regionSyllables":["yi","da","li"],"callingCode":"+39"},{"regionCode":"JE","regionName":"æ³½è¥¿å²›","regionFlag":"ğŸ‡¯ğŸ‡ª","regionSyllables":["ze","xi","dao"],"callingCode":"+44"},{"regionCode":"JM","regionName":"ç‰™ä¹°åŠ ","regionFlag":"ğŸ‡¯ğŸ‡²","regionSyllables":["ya","mai","jia"],"callingCode":"+1-876"},{"regionCode":"JO","regionName":"çº¦æ—¦","regionFlag":"ğŸ‡¯ğŸ‡´","regionSyllables":["yue","dan"],"callingCode":"+962"},{"regionCode":"JP","regionName":"æ—¥æœ¬","regionFlag":"ğŸ‡¯ğŸ‡µ","regionSyllables":["ri","ben"],"callingCode":"+81"},{"regionCode":"KE","regionName":"è‚¯å°¼äºš","regionFlag":"ğŸ‡°ğŸ‡ª","regionSyllables":["ken","ni","ya"],"callingCode":"+254"},{"regionCode":"KG","regionName":"å‰å°”å‰æ–¯æ–¯å¦","regionFlag":"ğŸ‡°ğŸ‡¬","regionSyllables":["ji","er","ji","si","si","tan"],"callingCode":"+996"},{"regionCode":"KH","regionName":"æŸ¬åŸ”å¯¨","regionFlag":"ğŸ‡°ğŸ‡­","regionSyllables":["jian","bu","zhai"],"callingCode":"+855"},{"regionCode":"KI","regionName":"åŸºé‡Œå·´æ–¯","regionFlag":"ğŸ‡°ğŸ‡®","regionSyllables":["ji","li","ba","si"],"callingCode":"+686"},{"regionCode":"KM","regionName":"ç§‘æ‘©ç½—","regionFlag":"ğŸ‡°ğŸ‡²","regionSyllables":["ke","mo","luo"],"callingCode":"+269"},{"regionCode":"KN","regionName":"åœ£åŸºèŒ¨å’Œå°¼ç»´æ–¯","regionFlag":"ğŸ‡°ğŸ‡³","regionSyllables":["sheng","ji","ci","he","ni","wei","si"],"callingCode":"+1-869"},{"regionCode":"KP","regionName":"æœé²œ","regionFlag":"ğŸ‡°ğŸ‡µ","regionSyllables":["chao","xian"],"callingCode":"+850"},{"regionCode":"KR","regionName":"éŸ©å›½","regionFlag":"ğŸ‡°ğŸ‡·","regionSyllables":["han","guo"],"callingCode":"+82"},{"regionCode":"KW","regionName":"ç§‘å¨ç‰¹","regionFlag":"ğŸ‡°ğŸ‡¼","regionSyllables":["ke","wei","te"],"callingCode":"+965"},{"regionCode":"KY","regionName":"å¼€æ›¼ç¾¤å²›","regionFlag":"ğŸ‡°ğŸ‡¾","regionSyllables":["kai","man","qun","dao"],"callingCode":"+345"},{"regionCode":"KZ","regionName":"å“ˆè¨å…‹æ–¯å¦","regionFlag":"ğŸ‡°ğŸ‡¿","regionSyllables":["ha","sa","ke","si","tan"],"callingCode":"+7"},{"regionCode":"LA","regionName":"è€æŒ","regionFlag":"ğŸ‡±ğŸ‡¦","regionSyllables":["lao","wo"],"callingCode":"+856"},{"regionCode":"LB","regionName":"é»å·´å«©","regionFlag":"ğŸ‡±ğŸ‡§","regionSyllables":["li","ba","nen"],"callingCode":"+961"},{"regionCode":"LC","regionName":"åœ£å¢è¥¿äºš","regionFlag":"ğŸ‡±ğŸ‡¨","regionSyllables":["sheng","lu","xi","ya"],"callingCode":"+1-758"},{"regionCode":"LI","regionName":"åˆ—æ”¯æ•¦å£«ç™»","regionFlag":"ğŸ‡±ğŸ‡®","regionSyllables":["lie","zhi","dun","shi","deng"],"callingCode":"+423"},{"regionCode":"LK","regionName":"æ–¯é‡Œå…°å¡","regionFlag":"ğŸ‡±ğŸ‡°","regionSyllables":["si","li","lan","ka"],"callingCode":"+94"},{"regionCode":"LR","regionName":"åˆ©æ¯”é‡Œäºš","regionFlag":"ğŸ‡±ğŸ‡·","regionSyllables":["li","bi","li","ya"],"callingCode":"+231"},{"regionCode":"LS","regionName":"è±ç´¢æ‰˜","regionFlag":"ğŸ‡±ğŸ‡¸","regionSyllables":["lai","suo","tuo"],"callingCode":"+266"},{"regionCode":"LT","regionName":"ç«‹é™¶å®›","regionFlag":"ğŸ‡±ğŸ‡¹","regionSyllables":["li","tao","wan"],"callingCode":"+370"},{"regionCode":"LU","regionName":"å¢æ£®å ¡","regionFlag":"ğŸ‡±ğŸ‡º","regionSyllables":["lu","sen","bao"],"callingCode":"+352"},{"regionCode":"LV","regionName":"æ‹‰è„±ç»´äºš","regionFlag":"ğŸ‡±ğŸ‡»","regionSyllables":["la","tuo","wei","ya"],"callingCode":"+371"},{"regionCode":"LY","regionName":"åˆ©æ¯”äºš","regionFlag":"ğŸ‡±ğŸ‡¾","regionSyllables":["li","bi","ya"],"callingCode":"+218"},{"regionCode":"MA","regionName":"æ‘©æ´›å“¥","regionFlag":"ğŸ‡²ğŸ‡¦","regionSyllables":["mo","luo","ge"],"callingCode":"+212"},{"regionCode":"MC","regionName":"æ‘©çº³å“¥","regionFlag":"ğŸ‡²ğŸ‡¨","regionSyllables":["mo","na","ge"],"callingCode":"+377"},{"regionCode":"MD","regionName":"æ‘©å°”å¤šç“¦","regionFlag":"ğŸ‡²ğŸ‡©","regionSyllables":["mo","er","duo","wa"],"callingCode":"+373"},{"regionCode":"ME","regionName":"é»‘å±±","regionFlag":"ğŸ‡²ğŸ‡ª","regionSyllables":["hei","shan"],"callingCode":"+382"},{"regionCode":"MF","regionName":"æ³•å±åœ£é©¬ä¸","regionFlag":"ğŸ‡²ğŸ‡«","regionSyllables":["fa","shu","sheng","ma","ding"],"callingCode":"+590"},{"regionCode":"MG","regionName":"é©¬è¾¾åŠ æ–¯åŠ ","regionFlag":"ğŸ‡²ğŸ‡¬","regionSyllables":["ma","da","jia","si","jia"],"callingCode":"+261"},{"regionCode":"MH","regionName":"é©¬ç»å°”ç¾¤å²›","regionFlag":"ğŸ‡²ğŸ‡­","regionSyllables":["ma","shao","er","qun","dao"],"callingCode":"+692"},{"regionCode":"MK","regionName":"é©¬å…¶é¡¿","regionFlag":"ğŸ‡²ğŸ‡°","regionSyllables":["ma","qi","dun"],"callingCode":"+389"},{"regionCode":"ML","regionName":"é©¬é‡Œ","regionFlag":"ğŸ‡²ğŸ‡±","regionSyllables":["ma","li"],"callingCode":"+223"},{"regionCode":"MM","regionName":"ç¼…ç”¸","regionFlag":"ğŸ‡²ğŸ‡²","regionSyllables":["mian","dian"],"callingCode":"+95"},{"regionCode":"MN","regionName":"è’™å¤","regionFlag":"ğŸ‡²ğŸ‡³","regionSyllables":["meng","gu"],"callingCode":"+976"},{"regionCode":"MO","regionName":"ä¸­å›½æ¾³é—¨","regionFlag":"ğŸ‡²ğŸ‡´","regionSyllables":["zhong","guo","ao","men"],"callingCode":"+853"},{"regionCode":"MP","regionName":"åŒ—é©¬é‡Œäºšçº³ç¾¤å²›","regionFlag":"ğŸ‡²ğŸ‡µ","regionSyllables":["bei","ma","li","ya","na","qun","dao"],"callingCode":"+1-670"},{"regionCode":"MQ","regionName":"é©¬æå°¼å…‹","regionFlag":"ğŸ‡²ğŸ‡¶","regionSyllables":["ma","ti","ni","ke"],"callingCode":"+596"},{"regionCode":"MR","regionName":"æ¯›é‡Œå¡”å°¼äºš","regionFlag":"ğŸ‡²ğŸ‡·","regionSyllables":["mao","li","ta","ni","ya"],"callingCode":"+222"},{"regionCode":"MS","regionName":"è’™ç‰¹å¡æ‹‰ç‰¹","regionFlag":"ğŸ‡²ğŸ‡¸","regionSyllables":["meng","te","sai","la","te"],"callingCode":"+1-664"},{"regionCode":"MT","regionName":"é©¬è€³ä»–","regionFlag":"ğŸ‡²ğŸ‡¹","regionSyllables":["ma","er","ta"],"callingCode":"+356"},{"regionCode":"MU","regionName":"æ¯›é‡Œæ±‚æ–¯","regionFlag":"ğŸ‡²ğŸ‡º","regionSyllables":["mao","li","qiu","si"],"callingCode":"+230"},{"regionCode":"MV","regionName":"é©¬å°”ä»£å¤«","regionFlag":"ğŸ‡²ğŸ‡»","regionSyllables":["ma","er","dai","fu"],"callingCode":"+960"},{"regionCode":"MW","regionName":"é©¬æ‹‰ç»´","regionFlag":"ğŸ‡²ğŸ‡¼","regionSyllables":["ma","la","wei"],"callingCode":"+265"},{"regionCode":"MX","regionName":"å¢¨è¥¿å“¥","regionFlag":"ğŸ‡²ğŸ‡½","regionSyllables":["mo","xi","ge"],"callingCode":"+52"},{"regionCode":"MY","regionName":"é©¬æ¥è¥¿äºš","regionFlag":"ğŸ‡²ğŸ‡¾","regionSyllables":["ma","lai","xi","ya"],"callingCode":"+60"},{"regionCode":"MZ","regionName":"è«æ¡‘æ¯”å…‹","regionFlag":"ğŸ‡²ğŸ‡¿","regionSyllables":["mo","sang","bi","ke"],"callingCode":"+258"},{"regionCode":"NA","regionName":"çº³ç±³æ¯”äºš","regionFlag":"ğŸ‡³ğŸ‡¦","regionSyllables":["na","mi","bi","ya"],"callingCode":"+264"},{"regionCode":"NC","regionName":"æ–°å–€é‡Œå¤šå°¼äºš","regionFlag":"ğŸ‡³ğŸ‡¨","regionSyllables":["xin","ka","li","duo","ni","ya"],"callingCode":"+687"},{"regionCode":"NE","regionName":"å°¼æ—¥å°”","regionFlag":"ğŸ‡³ğŸ‡ª","regionSyllables":["ni","ri","er"],"callingCode":"+227"},{"regionCode":"NF","regionName":"è¯ºç¦å…‹å²›","regionFlag":"ğŸ‡³ğŸ‡«","regionSyllables":["nuo","fu","ke","dao"],"callingCode":"+672"},{"regionCode":"NG","regionName":"å°¼æ—¥åˆ©äºš","regionFlag":"ğŸ‡³ğŸ‡¬","regionSyllables":["ni","ri","li","ya"],"callingCode":"+234"},{"regionCode":"NI","regionName":"å°¼åŠ æ‹‰ç“œ","regionFlag":"ğŸ‡³ğŸ‡®","regionSyllables":["ni","jia","la","gua"],"callingCode":"+505"},{"regionCode":"NL","regionName":"è·å…°","regionFlag":"ğŸ‡³ğŸ‡±","regionSyllables":["he","lan"],"callingCode":"+31"},{"regionCode":"NO","regionName":"æŒªå¨","regionFlag":"ğŸ‡³ğŸ‡´","regionSyllables":["nuo","wei"],"callingCode":"+47"},{"regionCode":"NP","regionName":"å°¼æ³Šå°”","regionFlag":"ğŸ‡³ğŸ‡µ","regionSyllables":["ni","po","er"],"callingCode":"+977"},{"regionCode":"NR","regionName":"ç‘™é²","regionFlag":"ğŸ‡³ğŸ‡·","regionSyllables":["nao","lu"],"callingCode":"+674"},{"regionCode":"NU","regionName":"çº½åŸƒ","regionFlag":"ğŸ‡³ğŸ‡º","regionSyllables":["niu","ai"],"callingCode":"+683"},{"regionCode":"NZ","regionName":"æ–°è¥¿å…°","regionFlag":"ğŸ‡³ğŸ‡¿","regionSyllables":["xin","xi","lan"],"callingCode":"+64"},{"regionCode":"OM","regionName":"é˜¿æ›¼","regionFlag":"ğŸ‡´ğŸ‡²","regionSyllables":["a","man"],"callingCode":"+968"},{"regionCode":"PA","regionName":"å·´æ‹¿é©¬","regionFlag":"ğŸ‡µğŸ‡¦","regionSyllables":["ba","na","ma"],"callingCode":"+507"},{"regionCode":"PE","regionName":"ç§˜é²","regionFlag":"ğŸ‡µğŸ‡ª","regionSyllables":["bi","lu"],"callingCode":"+51"},{"regionCode":"PF","regionName":"æ³•å±æ³¢åˆ©å°¼è¥¿äºš","regionFlag":"ğŸ‡µğŸ‡«","regionSyllables":["fa","shu","bo","li","ni","xi","ya"],"callingCode":"+689"},{"regionCode":"PG","regionName":"å·´å¸ƒäºšæ–°å‡ å†…äºš","regionFlag":"ğŸ‡µğŸ‡¬","regionSyllables":["ba","bu","ya","xin","ji","nei","ya"],"callingCode":"+675"},{"regionCode":"PH","regionName":"è²å¾‹å®¾","regionFlag":"ğŸ‡µğŸ‡­","regionSyllables":["fei","lu","bin"],"callingCode":"+63"},{"regionCode":"PK","regionName":"å·´åŸºæ–¯å¦","regionFlag":"ğŸ‡µğŸ‡°","regionSyllables":["ba","ji","si","tan"],"callingCode":"+92"},{"regionCode":"PL","regionName":"æ³¢å…°","regionFlag":"ğŸ‡µğŸ‡±","regionSyllables":["bo","lan"],"callingCode":"+48"},{"regionCode":"PM","regionName":"åœ£çš®åŸƒå°”å’Œå¯†å…‹éš†ç¾¤å²›","regionFlag":"ğŸ‡µğŸ‡²","regionSyllables":["sheng","pi","ai","er","he","mi","ke","long","qun","dao"],"callingCode":"+508"},{"regionCode":"PN","regionName":"çš®ç‰¹å‡¯æ©ç¾¤å²›","regionFlag":"ğŸ‡µğŸ‡³","regionSyllables":["pi","te","kai","en","qun","dao"],"callingCode":"+872"},{"regionCode":"PR","regionName":"æ³¢å¤šé»å„","regionFlag":"ğŸ‡µğŸ‡·","regionSyllables":["bo","duo","li","ge"],"callingCode":"+1-939"},{"regionCode":"PS","regionName":"å·´å‹’æ–¯å¦é¢†åœŸ","regionFlag":"ğŸ‡µğŸ‡¸","regionSyllables":["ba","lei","si","tan","ling","tu"],"callingCode":"+970"},{"regionCode":"PT","regionName":"è‘¡è„ç‰™","regionFlag":"ğŸ‡µğŸ‡¹","regionSyllables":["pu","tao","ya"],"callingCode":"+351"},{"regionCode":"PW","regionName":"å¸•åŠ³","regionFlag":"ğŸ‡µğŸ‡¼","regionSyllables":["pa","lao"],"callingCode":"+680"},{"regionCode":"PY","regionName":"å·´æ‹‰åœ­","regionFlag":"ğŸ‡µğŸ‡¾","regionSyllables":["ba","la","gui"],"callingCode":"+595"},{"regionCode":"QA","regionName":"å¡å¡”å°”","regionFlag":"ğŸ‡¶ğŸ‡¦","regionSyllables":["ka","ta","er"],"callingCode":"+974"},{"regionCode":"RE","regionName":"ç•™å°¼æ±ª","regionFlag":"ğŸ‡·ğŸ‡ª","regionSyllables":["liu","ni","wang"],"callingCode":"+262"},{"regionCode":"RO","regionName":"ç½—é©¬å°¼äºš","regionFlag":"ğŸ‡·ğŸ‡´","regionSyllables":["luo","ma","ni","ya"],"callingCode":"+40"},{"regionCode":"RS","regionName":"å¡å°”ç»´äºš","regionFlag":"ğŸ‡·ğŸ‡¸","regionSyllables":["sai","er","wei","ya"],"callingCode":"+381"},{"regionCode":"RU","regionName":"ä¿„ç½—æ–¯","regionFlag":"ğŸ‡·ğŸ‡º","regionSyllables":["e","luo","si"],"callingCode":"+7"},{"regionCode":"RW","regionName":"å¢æ—ºè¾¾","regionFlag":"ğŸ‡·ğŸ‡¼","regionSyllables":["lu","wang","da"],"callingCode":"+250"},{"regionCode":"SA","regionName":"æ²™ç‰¹é˜¿æ‹‰ä¼¯","regionFlag":"ğŸ‡¸ğŸ‡¦","regionSyllables":["sha","te","a","la","bo"],"callingCode":"+966"},{"regionCode":"SB","regionName":"æ‰€ç½—é—¨ç¾¤å²›","regionFlag":"ğŸ‡¸ğŸ‡§","regionSyllables":["suo","luo","men","qun","dao"],"callingCode":"+677"},{"regionCode":"SC","regionName":"å¡èˆŒå°”","regionFlag":"ğŸ‡¸ğŸ‡¨","regionSyllables":["sai","she","er"],"callingCode":"+248"},{"regionCode":"SD","regionName":"è‹ä¸¹","regionFlag":"ğŸ‡¸ğŸ‡©","regionSyllables":["su","dan"],"callingCode":"+249"},{"regionCode":"SE","regionName":"ç‘å…¸","regionFlag":"ğŸ‡¸ğŸ‡ª","regionSyllables":["rui","dian"],"callingCode":"+46"},{"regionCode":"SG","regionName":"æ–°åŠ å¡","regionFlag":"ğŸ‡¸ğŸ‡¬","regionSyllables":["xin","jia","po"],"callingCode":"+65"},{"regionCode":"SH","regionName":"åœ£èµ«å‹’æ‹¿","regionFlag":"ğŸ‡¸ğŸ‡­","regionSyllables":["sheng","he","lei","na"],"callingCode":"+290"},{"regionCode":"SI","regionName":"æ–¯æ´›æ–‡å°¼äºš","regionFlag":"ğŸ‡¸ğŸ‡®","regionSyllables":["si","luo","wen","ni","ya"],"callingCode":"+386"},{"regionCode":"SJ","regionName":"æ–¯ç“¦å°”å·´å’Œæ‰¬é©¬å»¶","regionFlag":"ğŸ‡¸ğŸ‡¯","regionSyllables":["si","wa","er","ba","he","yang","ma","yan"],"callingCode":"+47"},{"regionCode":"SK","regionName":"æ–¯æ´›ä¼å…‹","regionFlag":"ğŸ‡¸ğŸ‡°","regionSyllables":["si","luo","fa","ke"],"callingCode":"+421"},{"regionCode":"SL","regionName":"å¡æ‹‰åˆ©æ˜‚","regionFlag":"ğŸ‡¸ğŸ‡±","regionSyllables":["sai","la","li","ang"],"callingCode":"+232"},{"regionCode":"SM","regionName":"åœ£é©¬åŠ›è¯º","regionFlag":"ğŸ‡¸ğŸ‡²","regionSyllables":["sheng","ma","li","nuo"],"callingCode":"+378"},{"regionCode":"SN","regionName":"å¡å†…åŠ å°”","regionFlag":"ğŸ‡¸ğŸ‡³","regionSyllables":["sai","nei","jia","er"],"callingCode":"+221"},{"regionCode":"SO","regionName":"ç´¢é©¬é‡Œ","regionFlag":"ğŸ‡¸ğŸ‡´","regionSyllables":["suo","ma","li"],"callingCode":"+252"},{"regionCode":"SR","regionName":"è‹é‡Œå—","regionFlag":"ğŸ‡¸ğŸ‡·","regionSyllables":["su","li","nan"],"callingCode":"+597"},{"regionCode":"SS","regionName":"å—è‹ä¸¹","regionFlag":"ğŸ‡¸ğŸ‡¸","regionSyllables":["nan","su","dan"],"callingCode":"+211"},{"regionCode":"ST","regionName":"åœ£å¤šç¾å’Œæ™®æ—è¥¿æ¯”","regionFlag":"ğŸ‡¸ğŸ‡¹","regionSyllables":["sheng","duo","mei","he","pu","lin","xi","bi"],"callingCode":"+239"},{"regionCode":"SV","regionName":"è¨å°”ç“¦å¤š","regionFlag":"ğŸ‡¸ğŸ‡»","regionSyllables":["sa","er","wa","duo"],"callingCode":"+503"},{"regionCode":"SX","regionName":"è·å±åœ£é©¬ä¸","regionFlag":"ğŸ‡¸ğŸ‡½","regionSyllables":["he","shu","sheng","ma","ding"],"callingCode":"+1-721"},{"regionCode":"SY","regionName":"å™åˆ©äºš","regionFlag":"ğŸ‡¸ğŸ‡¾","regionSyllables":["xu","li","ya"],"callingCode":"+963"},{"regionCode":"SZ","regionName":"æ–¯å¨å£«å…°","regionFlag":"ğŸ‡¸ğŸ‡¿","regionSyllables":["si","wei","shi","lan"],"callingCode":"+268"},{"regionCode":"TA","regionName":"ç‰¹é‡Œæ–¯å¦-è¾¾åº“å°¼äºšç¾¤å²›","regionFlag":"ğŸ‡¹ğŸ‡¦","regionSyllables":["te","li","si","tan-da","ku","ni","ya","qun","dao"],"callingCode":"+290"},{"regionCode":"TC","regionName":"ç‰¹å…‹æ–¯å’Œå‡¯ç§‘æ–¯ç¾¤å²›","regionFlag":"ğŸ‡¹ğŸ‡¨","regionSyllables":["te","ke","si","he","kai","ke","si","qun","dao"],"callingCode":"+1-649"},{"regionCode":"TD","regionName":"ä¹å¾—","regionFlag":"ğŸ‡¹ğŸ‡©","regionSyllables":["zha","de"],"callingCode":"+235"},{"regionCode":"TG","regionName":"å¤šå“¥","regionFlag":"ğŸ‡¹ğŸ‡¬","regionSyllables":["duo","ge"],"callingCode":"+228"},{"regionCode":"TH","regionName":"æ³°å›½","regionFlag":"ğŸ‡¹ğŸ‡­","regionSyllables":["tai","guo"],"callingCode":"+66"},{"regionCode":"TJ","regionName":"å¡”å‰å…‹æ–¯å¦","regionFlag":"ğŸ‡¹ğŸ‡¯","regionSyllables":["ta","ji","ke","si","tan"],"callingCode":"+992"},{"regionCode":"TK","regionName":"æ‰˜å…‹åŠ³","regionFlag":"ğŸ‡¹ğŸ‡°","regionSyllables":["tuo","ke","lao"],"callingCode":"+690"},{"regionCode":"TL","regionName":"ä¸œå¸æ±¶","regionFlag":"ğŸ‡¹ğŸ‡±","regionSyllables":["dong","di","wen"],"callingCode":"+670"},{"regionCode":"TM","regionName":"åœŸåº“æ›¼æ–¯å¦","regionFlag":"ğŸ‡¹ğŸ‡²","regionSyllables":["tu","ku","man","si","tan"],"callingCode":"+993"},{"regionCode":"TN","regionName":"çªå°¼æ–¯","regionFlag":"ğŸ‡¹ğŸ‡³","regionSyllables":["tu","ni","si"],"callingCode":"+216"},{"regionCode":"TO","regionName":"æ±¤åŠ ","regionFlag":"ğŸ‡¹ğŸ‡´","regionSyllables":["tang","jia"],"callingCode":"+676"},{"regionCode":"TR","regionName":"åœŸè€³å…¶","regionFlag":"ğŸ‡¹ğŸ‡·","regionSyllables":["tu","er","qi"],"callingCode":"+90"},{"regionCode":"TT","regionName":"ç‰¹ç«‹å°¼è¾¾å’Œå¤šå·´å“¥","regionFlag":"ğŸ‡¹ğŸ‡¹","regionSyllables":["te","li","ni","da","he","duo","ba","ge"],"callingCode":"+1-868"},{"regionCode":"TV","regionName":"å›¾ç“¦å¢","regionFlag":"ğŸ‡¹ğŸ‡»","regionSyllables":["tu","wa","lu"],"callingCode":"+688"},{"regionCode":"TW","regionName":"ä¸­å›½å°æ¹¾","regionFlag":"ğŸ‡¨ğŸ‡³","regionSyllables":["zhong","guo","tai","wan"],"callingCode":"+886"},{"regionCode":"TZ","regionName":"å¦æ¡‘å°¼äºš","regionFlag":"ğŸ‡¹ğŸ‡¿","regionSyllables":["tan","sang","ni","ya"],"callingCode":"+255"},{"regionCode":"UA","regionName":"ä¹Œå…‹å…°","regionFlag":"ğŸ‡ºğŸ‡¦","regionSyllables":["wu","ke","lan"],"callingCode":"+380"},{"regionCode":"UG","regionName":"ä¹Œå¹²è¾¾","regionFlag":"ğŸ‡ºğŸ‡¬","regionSyllables":["wu","gan","da"],"callingCode":"+256"},{"regionCode":"UM","regionName":"ç¾å›½æœ¬åœŸå¤–å°å²›å±¿","regionFlag":"ğŸ‡ºğŸ‡¸","regionSyllables":["mei","guo","ben","tu","wai","xiao","dao","yu"],"callingCode":"+1"},{"regionCode":"US","regionName":"ç¾å›½","regionFlag":"ğŸ‡ºğŸ‡¸","regionSyllables":["mei","guo"],"callingCode":"+1"},{"regionCode":"UY","regionName":"ä¹Œæ‹‰åœ­","regionFlag":"ğŸ‡ºğŸ‡¾","regionSyllables":["wu","la","gui"],"callingCode":"+598"},{"regionCode":"UZ","regionName":"ä¹Œå…¹åˆ«å…‹æ–¯å¦","regionFlag":"ğŸ‡ºğŸ‡¿","regionSyllables":["wu","zi","bie","ke","si","tan"],"callingCode":"+998"},{"regionCode":"VA","regionName":"æ¢µè’‚å†ˆ","regionFlag":"ğŸ‡»ğŸ‡¦","regionSyllables":["fan","di","gang"],"callingCode":"+379"},{"regionCode":"VC","regionName":"åœ£æ–‡æ£®ç‰¹å’Œæ ¼æ—çº³ä¸æ–¯","regionFlag":"ğŸ‡»ğŸ‡¨","regionSyllables":["sheng","wen","sen","te","he","ge","lin","na","ding","si"],"callingCode":"+1-784"},{"regionCode":"VE","regionName":"å§”å†…ç‘æ‹‰","regionFlag":"ğŸ‡»ğŸ‡ª","regionSyllables":["wei","nei","rui","la"],"callingCode":"+58"},{"regionCode":"VG","regionName":"è‹±å±ç»´å°”äº¬ç¾¤å²›","regionFlag":"ğŸ‡»ğŸ‡¬","regionSyllables":["ying","shu","wei","er","jing","qun","dao"],"callingCode":"+1-284"},{"regionCode":"VI","regionName":"ç¾å±ç»´å°”äº¬ç¾¤å²›","regionFlag":"ğŸ‡»ğŸ‡®","regionSyllables":["mei","shu","wei","er","jing","qun","dao"],"callingCode":"+1-340"},{"regionCode":"VN","regionName":"è¶Šå—","regionFlag":"ğŸ‡»ğŸ‡³","regionSyllables":["yue","nan"],"callingCode":"+84"},{"regionCode":"VU","regionName":"ç“¦åŠªé˜¿å›¾","regionFlag":"ğŸ‡»ğŸ‡º","regionSyllables":["wa","nu","a","tu"],"callingCode":"+678"},{"regionCode":"WF","regionName":"ç“¦åˆ©æ–¯å’Œå¯Œå›¾çº³","regionFlag":"ğŸ‡¼ğŸ‡«","regionSyllables":["wa","li","si","he","fu","tu","na"],"callingCode":"+681"},{"regionCode":"WS","regionName":"è¨æ‘©äºš","regionFlag":"ğŸ‡¼ğŸ‡¸","regionSyllables":["sa","mo","ya"],"callingCode":"+685"},{"regionCode":"XK","regionName":"ç§‘ç´¢æ²ƒ","regionFlag":"ğŸ‡½ğŸ‡°","regionSyllables":["ke","suo","wo"],"callingCode":"+383"},{"regionCode":"YE","regionName":"ä¹Ÿé—¨","regionFlag":"ğŸ‡¾ğŸ‡ª","regionSyllables":["ye","men"],"callingCode":"+967"},{"regionCode":"YT","regionName":"é©¬çº¦ç‰¹","regionFlag":"ğŸ‡¾ğŸ‡¹","regionSyllables":["ma","yue","te"],"callingCode":"+262"},{"regionCode":"ZA","regionName":"å—é","regionFlag":"ğŸ‡¿ğŸ‡¦","regionSyllables":["nan","fei"],"callingCode":"+27"},{"regionCode":"ZM","regionName":"èµæ¯”äºš","regionFlag":"ğŸ‡¿ğŸ‡²","regionSyllables":["zan","bi","ya"],"callingCode":"+260"},{"regionCode":"ZW","regionName":"æ´¥å·´å¸ƒéŸ¦","regionFlag":"ğŸ‡¿ğŸ‡¼","regionSyllables":["jin","ba","bu","wei"],"callingCode":"+263"}]
